QIANFAN-60              
1 62790U 25016F   25354.11236190  .00000050  00000+0  58718-4 0  9997
2 62790  88.9762 102.3143 0014317 326.0953  33.9281 13.50985458 48224
QIANFAN-61              
1 62791U 25016G   25354.07110377  .00000128  00000+0  17981-3 0  9993
2 62791  88.9829 102.4864 0013310 325.8708  34.1587 13.50982260 48238
QIANFAN-62              
1 62792U 25016H   25354.14929985  .00000144  00000+0  20439-3 0  9995
2 62792  88.9776 102.3428 0014695 325.6006  34.4192 13.50978867 48234
QIANFAN-63              
1 62793U 25016J   25354.17397647  .00000144  00000+0  20428-3 0  9991
2 62793  88.9783 102.2923 0014855 331.3080  28.7253 13.50985629 48278
QIANFAN-64              
1 62794U 25016K   25354.14104619  .00000132  00000+0  18621-3 0  9993
2 62794  88.9769 102.2687 0012663 324.3340  35.6964 13.50980630 48268
QIANFAN-65              
1 62795U 25016L   25354.13692172  .00000132  00000+0  18646-3 0  9996
2 62795  88.9766 102.2949 0012530 326.3908  33.6447 13.50986350 48249
QIANFAN-66              
1 62796U 25016M   25354.16574197  .00000130  00000+0  18288-3 0  9996
2 62796  88.9785 102.2635 0013563 320.9514  39.0657 13.50979131 48290
QIANFAN-67              
1 62797U 25016N   25354.09590737  .00000132  00000+0  18557-3 0  9998
2 62797  88.9775 102.2957 0013659 328.8175  31.2164 13.50983284 48250
QIANFAN-68              
1 62798U 25016P   25354.16165338  .00000136  00000+0  19285-3 0  9995
2 62798  88.9779 102.3343 0013674 326.6509  33.3780 13.50985719 48240
QIANFAN-69              
1 62799U 25016Q   25354.17813075  .00000133  00000+0  18804-3 0  9998
2 62799  88.9758 102.2004 0014438 327.6029  32.4235 13.50988466 48289
QIANFAN-70              
1 62800U 25016R   25354.12054200  .00000144  00000+0  20426-3 0  9998
2 62800  88.9779 102.3464 0013894 317.3107  42.6964 13.50979397 48234
QIANFAN-71              
1 62801U 25016S   25354.11634769  .00000137  00000+0  19383-3 0  9994
2 62801  88.9773 102.3258 0014408 331.6754  28.3612 13.50978930 48232
QIANFAN-72              
1 62802U 25016T   25354.13281003  .00000131  00000+0  18377-3 0  9992
2 62802  88.9763 102.3368 0017850 338.5479  21.4922 13.50986447 48227
QIANFAN-73              
1 63159U 25046A   25354.15995420  .00000098  00000+0  13323-3 0  9996
2 63159  88.9767 319.2544 0016837  99.9785 260.3267 13.50978722 48418
QIANFAN-74              
1 63160U 25046B   25354.14333742  .00000063  00000+0  78199-4 0  9995
2 63160  88.9768 319.1449 0002031  75.3642 284.7734 13.50975510 48472
QIANFAN-75              
1 63161U 25046C   25354.20469041  .00000130  00000+0  18270-3 0  9993
2 63161  88.9769 319.3722 0017929 102.6178 257.6980 13.50980730 48359
QIANFAN-76              
1 63162U 25046D   25354.12727545  .00000076  00000+0  99494-4 0  9998
2 63162  88.9768 319.3609 0015462 102.9459 257.3420 13.50978148 48354
QIANFAN-77              
1 63163U 25046E   25354.13972501  .00000281  00000+0  19484-3 0  9992
2 63163  88.9770 317.3059 0016919  60.6873 299.5992 13.96093209 49486
QIANFAN-78              
1 63164U 25046F   25354.16815638  .00000105  00000+0  14316-3 0  9997
2 63164  88.9767 319.2205 0016802 105.0758 255.2253 13.50979072 48438
QIANFAN-79              
1 63165U 25046G   25354.19680881  .00000107  00000+0  14672-3 0  9998
2 63165  88.9771 319.3254 0016527 103.4286 256.8708 13.50980751 48383
QIANFAN-80              
1 63166U 25046H   25354.13927392  .00000113  00000+0  15653-3 0  9991
2 63166  88.9769 319.0380 0015436 107.1276 253.1567 13.50978690 48535
QIANFAN-81              
1 63167U 25046J   25354.19159148  .00000128  00000+0  17919-3 0  9997
2 63167  88.9769 319.1005 0016603  96.9296 263.3744 13.51004558 48494
QIANFAN-82              
1 63168U 25046K   25354.15172536  .00000115  00000+0  15950-3 0  9999
2 63168  88.9769 319.1486 0014649 103.6204 256.6580 13.50977692 48479
QIANFAN-83              
1 63169U 25046L   25354.19252057  .00000127  00000+0  14796-3 0  9991
2 63169  88.9769 318.9061 0016142  90.5410 269.7597 13.61976664 48618
QIANFAN-84              
1 63170U 25046M   25354.17947074  .00000086  00000+0  11429-3 0  9995
2 63170  88.9768 319.2783 0017657 100.9989 259.3149 13.50988271 48403
QIANFAN-85              
1 63171U 25046N   25354.17628462  .00000124  00000+0  17248-3 0  9991
2 63171  88.9768 319.1504 0015015 102.5444 257.7388 13.50978528 48472
QIANFAN-86              
1 63172U 25046P   25354.11054870  .00000111  00000+0  15241-3 0  9999
2 63172  88.9771 319.0195 0012833 105.8872 254.3695 13.50978197 48542
QIANFAN-87              
1 63173U 25046Q   25354.15595433  .00000107  00000+0  14658-3 0  9995
2 63173  88.9766 319.1262 0013561 101.9438 258.3235 13.50975906 48489
QIANFAN-88              
1 63174U 25046R   25354.17224897  .00000114  00000+0  15732-3 0  9993
2 63174  88.9769 319.0793 0013837 108.9419 251.3234 13.50982549 48510
QIANFAN-89              
1 63175U 25046S   25354.13508061  .00000118  00000+0  16299-3 0  9991
2 63175  88.9769 319.2722 0018331 101.5423 258.7787 13.50978368 48409
QIANFAN-90              
1 63176U 25046T   25354.08975197  .00000112  00000+0  15529-3 0  9993
2 63176  88.9769 319.2492 0015288  99.6421 260.6458 13.50978739 48417
QIANFAN-91              
1 66033U 25233A   25354.08897035  .00000049  00000+0  42208-4 0  9994
2 66033  88.9950  61.3854 0016332  26.2463 333.9523 13.69217374  8980
QIANFAN-92              
1 66034U 25233B   25354.14237220  .00000046  00000+0  37254-4 0  9998
2 66034  88.9946  61.3709 0016921  25.0127 335.1852 13.70876804  8994
QIANFAN-93              
1 66035U 25233C   25354.16769943  .00000048  00000+0  40472-4 0  9991
2 66035  88.9954  61.3760 0015505  26.6083 333.5871 13.69957410  8990
QIANFAN-94              
1 66036U 25233D   25354.10994083  .00000053  00000+0  42741-4 0  9998
2 66036  88.9957  61.3683 0015827  22.7615 337.4248 13.74698867  8998
QIANFAN-95              
1 66037U 25233E   25354.11607022  .00000108  00000+0  51541-4 0  9993
2 66037  88.9955  61.2218 0014710  23.6147 336.5710 14.11892978  9075
QIANFAN-96              
1 66038U 25233F   25354.19374273  .00000048  00000+0  39828-4 0  9998
2 66038  88.9953  61.3800 0016453  26.8918 333.3094 13.71015395  8994
QIANFAN-97              
1 66039U 25233G   25354.07232753 -.02076652  00000+0 -25537+1 0  9998
2 66039  88.9950  61.3812 0021134  29.8871 330.3493 13.69479886  8983
QIANFAN-98              
1 66040U 25233H   25354.11162025  .00000060  00000+0  37362-4 0  9998
2 66040  88.9953  61.2949 0015670  25.0754 335.1177 13.90773445  9035
QIANFAN-99              
1 66041U 25233J   25354.08283906 -.02092494  00000+0 -26495+1 0  9994
2 66041  88.9947  61.3818 0017950  42.8343 317.4213 13.67746255  8989
QIANFAN-100             
1 66042U 25233K   25354.10184352 -.02015159  00000+0 -21733+1 0  9996
2 66042  88.9951  61.3125 0014709  24.8590 335.3281 13.77358542  9028
QIANFAN-101             
1 66043U 25233L   25354.17096968  .00000250  00000+0  97314-4 0  9993
2 66043  88.9955  61.1744 0015181  19.7962 340.3818 14.26680254  9103
QIANFAN-102             
1 66044U 25233M   25354.07857433  .00000054  00000+0  43089-4 0  9997
2 66044  88.9939  61.3581 0013200  31.7990 328.3969 13.75405433  8998
QIANFAN-103             
1 66045U 25233N   25353.94817707  .00000047  00000+0  37662-4 0  9995
2 66045  88.9972  61.3973 0015121  24.3222 335.8652 13.71838931  8969
QIANFAN-104             
1 66046U 25233P   25354.09041602 -.01982578  00000+0 -23681+1 0  9999
2 66046  88.9943  61.3660 0014595  32.5656 327.6404 13.71114850  8991
QIANFAN-105             
1 66047U 25233Q   25354.08782196  .00000059  00000+0  34278-4 0  9999
2 66047  88.9949  61.3299 0016122  26.3104 333.8887 13.94304499  9016
QIANFAN-106             
1 66048U 25233R   25354.11565903  .00000053  00000+0  42372-4 0  9997
2 66048  88.9948  61.3677 0015989  23.1617 337.0264 13.74019218  8991
QIANFAN-107             
1 66049U 25233S   25353.60643650  .00000049  00000+0  38601-4 0  9992
2 66049  88.9956  61.4231 0015541  27.7470 332.4520 13.73185800  8926
QIANFAN-108             
1 66050U 25233T   25354.11320885  .00000051  00000+0  41158-4 0  9997
2 66050  88.9952  61.3679 0015866  28.1759 332.0260 13.73306064  8995
